1 06073U 72023E   02218.15140959  .00019224  20836-5  18454-3 0  9994
2 06073 052.0786 251.0849 2599757 130.2011 255.7036 10.33023023744221
1 06073U 72023E   02218.44165968  .00018421  20818-5  17739-3 0  9996
2 06073 052.0787 250.4490 2599654 130.6607 255.1095 10.33032267744250
1 06073U 72023E   02218.82865114  .00018422  20793-5  17739-3 0  9991
2 06073 052.0787 249.6015 2599580 131.2724 254.3088 10.33047206744294
1  6073U 72023E   02218.92539796 +.00018422 +20786-5 +17739-3 0  9998
2  6073 052.0787 249.3896 2599562 131.4253 254.1080 10.33050941744309
1 06073U 72023E   02219.11889035  .00018422  20774-5  17739-3 0  9991
2 06073 052.0787 248.9658 2599525 131.7311 253.7056 10.33058410744326
1 06073U 72023E   02219.40912580  .00017258  20755-5  16701-3 0  9998
2 06073 052.0785 248.3262 2599401 132.1864 253.0949 10.33066005744356
1 06073U 72023E   02219.79610478  .00017248  20729-5  16681-3 0  9998
2 06073 052.0783 247.4791 2599356 132.7971 252.2949 10.33080062744399
1  6073U 72023E   02219.89284787 +.00017248 +20722-5 +16681-3 0  9992
2  6073 052.0783 247.2672 2599339 132.9500 252.0916 10.33083569744405
1 06073U 72023E   02220.18307474  .00016562  20703-5  16067-3 0  9990
2 06073 052.0782 246.6314 2599246 133.4080 251.4766 10.33092214744432
1 06073U 72023E   02220.37655883  .00016507  20689-5  16006-3 0  9996
2 06073 052.0786 246.2078 2599242 133.7144 251.0712 10.33098815744451
1  6073U 72023E   02220.66678006 +.00016699 +20669-5 +16173-3 0  9995
2  6073 052.0777 245.5729 2599214 134.1714 250.4578 10.33109658744487
1 06073U 72023E   02221.15047505  .00016827  20635-5  16284-3 0  9993
2 06073 052.0784 244.5229 2599144 134.9330 249.4266 10.33126857744531
1 06073U 72023E   02221.44068916  .00017055  20614-5  16492-3 0  9996
2 06073 052.0785 243.8881 2599094 135.3900 248.8155 10.33137882744563
1  6073U 72023E   02221.63416146 +.00017013 +20598-5 +16370-3 0  9999
2  6073 052.0771 243.4614 2599278 135.7016 248.3983 10.33144899744586
1 06073U 72023E   02222.11783367  .00017610  20563-5  16911-3 0  9991
2 06073 052.0770 242.4029 2599198 136.4672 247.3480 10.33163773744630
1 06073U 72023E   02222.50476611  .00018258  20535-5  17488-3 0  9993
2 06073 052.0771 241.5535 2599158 137.0771 246.5178 10.33180192744679
1 06073U 72023E   02222.79495946  .00018322  20514-5  17551-3 0  9996
2 06073 052.0765 240.9172 2599090 137.5332 245.8848 10.33191376744701
1  6073U 72023E   02222.89169025 +.00018883 +20508-5 +18098-3 0  9995
2  6073 052.0764 240.7045 2598985 137.6838 245.6779 10.33196315744711
1 06073U 72023E   02223.18187759  .00019471  20485-5  18617-3 0  9997
2 06073 052.0768 240.0695 2598969 138.1435 245.0416 10.33209584744748
1 06073U 72023E   02223.37533328  .00020090  20470-5  19146-3 0  9996
2 06073 052.0777 239.6459 2599008 138.4511 244.6150 10.33218969744762
1 06073U 72023E   02223.76224112  .00020091  20441-5  19146-3 0  9996
2 06073 052.0777 238.7982 2598928 139.0629 243.7643 10.33235188744804
1  6073U 72023E   02223.85896692 +.00020091 +20433-5 +19146-3 0  9995
2  6073 052.0777 238.5863 2598908 139.2159 243.5508 10.33239242744812
1 06073U 72023E   02224.43931220  .00019690  20387-5  18696-3 0  9997
2 06073 052.0791 237.3158 2598980 140.1368 242.2624 10.33262757744873
1 06073U 72023E   02224.72947807  .00020048  20366-5  19052-3 0  9990
2 06073 052.0787 236.6791 2598847 140.5947 241.6168 10.33276046744908
1  6073U 72023E   02224.82619941 +.00020049 +20358-5 +19052-3 0  9998
2  6073 052.0787 236.4672 2598827 140.7476 241.4010 10.33280092744912
1 06073U 72023E   02225.11635946  .00021552  20336-5  20448-3 0  9991
2 06073 052.0802 235.8321 2598694 141.2054 240.7566 10.33296515744942
1 06073U 72023E   02225.50323163  .00021769  20306-5  20647-3 0  9997
2 06073 052.0804 234.9846 2598602 141.8181 239.8828 10.33314501744982
1 06073U 72023E   02225.79338188  .00022510  20283-5  21341-3 0  9992
2 06073 052.0811 234.3442 2598491 142.2790 239.2347 10.33329875745018
1  6073U 72023E   02225.89009501 +.00022510 +20275-5 +21341-3 0  9998
2  6073 052.0811 234.1323 2598469 142.4319 239.0071 10.33334396745025
1 06073U 72023E   02226.08352473  .00023251  20259-5  21983-3 0  9996
2 06073 052.0813 233.7090 2598483 142.7395 238.5728 10.33345489745046
1 06073U 72023E   02226.47037849  .00022971  20232-5  21886-3 0  9997
2 06073 052.0816 232.8623 2598082 143.3417 237.7004 10.33363201745082
1 06073U 72023E   02226.76051313  .00022972  20209-5  21886-3 0  9996
2 06073 052.0816 232.2265 2598014 143.8004 237.0397 10.33377031745118
1  6073U 72023E   02226.85722370 +.00022972 +20201-5 +21886-3 0  9996
2  6073 052.0816 232.0146 2597991 143.9533 236.8191 10.33381641745127
1 06073U 72023E   02227.14735243  .00022972  20178-5  21886-3 0  9995
2 06073 052.0816 231.3788 2597923 144.4121 236.1557 10.33395470745152
1 06073U 72023E   02227.53418385  .00022973  20146-5  21886-3 0  9999
2 06073 052.0816 230.5311 2597833 145.0237 235.2680 10.33413909745199
1 06073U 72023E   02227.72759660  .00022973  20131-5  21886-3 0  9998
2 06073 052.0816 230.1073 2597788 145.3295 234.8228 10.33423128745216
1  6073U 72023E   02227.92100740 +.00022974 +20115-5 +21886-3 0  9992
2  6073 052.0816 229.6834 2597742 145.6353 234.3767 10.33432347745230
1 06073U 72023E   02228.11441623  .00023949  20098-5  22730-3 0  9994
2 06073 052.0814 229.2539 2597779 145.9486 233.9397 10.33444986745254
1 06073U 72023E   02228.40451834  .00024607  20073-5  23324-3 0  9996
2 06073 052.0820 228.6193 2597716 146.4074 233.2481 10.33461388745285
1  6073U 72023E   02228.79132163 +.00024657 +20041-5 +23370-3 0  9990
2  6073 052.0817 227.7719 2597617 147.0187 232.3486 10.33481190745320
1 06073U 72023E   02229.17811749  .00025531  20012-5  24321-3 0  9994
2 06073 052.0824 226.9327 2597239 147.6211 231.4570 10.33503709745367
1 06073U 72023E   02229.46820749  .00025531  19988-5  24321-3 0  9996
2 06073 052.0824 226.2969 2597164 148.0798 230.7778 10.33519018745399
1 06073U 72023E   02229.75829267  .00025532  19963-5  24321-3 0  9996
2 06073 052.0824 225.6611 2597089 148.5385 230.0967 10.33534328745427
1  6073U 72023E   02229.85498667 +.00026533 +19955-5 +25230-3 0  9996
2  6073 052.0826 225.4472 2597075 148.6913 229.8769 10.33542327745430
1 06073U 72023E   02230.14506266  .00025478  19929-5  24214-3 0  9994
2 06073 052.0830 224.8133 2597087 149.1542 229.1776 10.33555422745463
1 06073U 72023E   02230.53182705  .00025937  19897-5  24672-3 0  9997
2 06073 052.0819 223.9647 2596917 149.7641 228.2696 10.33577279745507
1  6073U 72023E   02230.82189277 +.00026223 +19872-5 +24930-3 0  9999
2  6073 052.0822 223.3274 2596844 150.2262 227.5765 10.33593483745533
1 06073U 72023E   02231.11195550  .00025971  19848-5  24731-3 0  9994
2 06073 052.0821 222.6925 2596712 150.6810 226.8900 10.33608448745568
1 06073U 72023E   02231.49869748  .00026457  19814-5  25187-3 0  9991
2 06073 052.0820 221.8449 2596589 151.2914 225.9725 10.33630781745608
1 06073U 72023E   02231.69206410  .00026512  19798-5  25236-3 0  9992
2 06073 052.0818 221.4210 2596540 151.5968 225.5076 10.33641480745621
1  6073U 72023E   02231.88542927 +.00026513 +19781-5 +25236-3 0  9992
2  6073 052.0818 220.9971 2596488 151.9027 225.0443 10.33652062745643
1 06073U 72023E   02232.17547293  .00026513  19755-5  25236-3 0  9997
2 06073 052.0818 220.3612 2596410 152.3614 224.3478 10.33667934745678
1 06073U 72023E   02232.36883264  .00028026  19737-5  26598-3 0  9992
2 06073 052.0834 219.9360 2596391 152.6703 223.8937 10.33683345745690
1 06073U 72023E   02232.65886273  .00028439  19712-5  27022-3 0  9991
2 06073 052.0827 219.3002 2596234 153.1277 223.1820 10.33701093745726
1  6073U 72023E   02232.94889082 +.00028833 +19687-5 +27410-3 0  9994
2  6073 052.0825 218.6664 2596106 153.5845 222.4816 10.33719098745757
1 06073U 72023E   02233.14224157  .00028175  19669-5  26752-3 0  9990
2 06073 052.0826 218.2431 2596141 153.8919 222.0120 10.33728350745777
1 06073U 72023E   02233.43226171  .00028851  19644-5  27398-3 0  9991
2 06073 052.0824 217.6072 2596011 154.3472 221.3173 10.33747585745800
1 06073U 72023E   02233.52893259  .00028841  19636-5  27389-3 0  9998
2 06073 052.0818 217.3956 2595982 154.4997 221.0785 10.33753319745819
1  6073U 72023E   02233.91561486 +.00029213 +19600-5 +27706-3 0  9993
2  6073 052.0816 216.5469 2595907 155.1153 220.1369 10.33777221745856
1 06073U 72023E   02234.10894966  .00030518  19583-5  28925-3 0  9991
2 06073 052.0817 216.1243 2595810 155.4192 219.6644 10.33792650745876
1 06073U 72023E   02234.30228330  .00031230  19566-5  29585-3 0  9995
2 06073 052.0817 215.6994 2595735 155.7239 219.1956 10.33806927745890
1 06073U 72023E   02234.68894260  .00031854  19530-5  30105-3 0  9990
2 06073 052.0807 214.8525 2595686 156.3375 218.2449 10.33832967745938
1  6073U 72023E   02234.88226773 +.00031481 +19512-5 +29693-3 0  9996
2  6073 052.0802 214.4278 2595732 156.6443 217.7613 10.33843874745953
1 06073U 72023E   02235.07559509  .00029685  19495-5  28072-3 0  9997
2 06073 052.0801 214.0037 2595646 156.9525 217.2866 10.33851458745973
1 06073U 72023E   02235.46224315  .00026627  19461-5  25337-3 0  9991
2 06073 052.0812 213.1560 2595432 157.5593 216.3408 10.33866674746015
1 06073U 72023E   02235.75222123  .00026628  19434-5  25337-3 0  9999
2 06073 052.0812 212.5200 2595354 158.0182 215.6244 10.33882601746043
1  6073U 72023E   02235.84887951 +.00026355 +19424-5 +25001-3 0  9999
2  6073 052.0829 212.3075 2595476 158.1703 215.3865 10.33887270746058
1 06073U 72023E   02236.13885378  .00024620  19396-5  23361-3 0  9991
2 06073 052.0837 211.6719 2595497 158.6308 214.6672 10.33898482746081
1 06073U 72023E   02236.42882224  .00024815  19369-5  23551-3 0  9997
2 06073 052.0843 211.0370 2595400 159.0902 213.9491 10.33914023746119
1 06073U 72023E   02236.71878517  .00024966  19342-5  23713-3 0  9997
2 06073 052.0847 210.4002 2595282 159.5488 213.2258 10.33929232746145
